[{"OBJECT_NAME":"STARLINK-34225","OBJECT_ID":"2025-129C","EPOCH":"2026-03-09T10:21:52.915680","MEAN_MOTION":14.98334097,"ECCENTRICITY":0.00035263,"INCLINATION":70.0011,"RA_OF_ASC_NODE":75.3047,"ARG_OF_PERICENTER":266.6625,"MEAN_ANOMALY":93.413,"EPHEMERIS_TYPE":0,"CLASSIFICATION_TYPE":"U","NORAD_CAT_ID":64414,"ELEMENT_SET_NO":999,"REV_AT_EPOCH":4124,"BSTAR":0.00014789839,"MEAN_MOTION_DOT":1.672e-5,"MEAN_MOTION_DDOT":0},{"OBJECT_NAME":"ATLAS 28E DEB","OBJECT_ID":"1990-031F","EPOCH":"2026-03-09T23:20:22.354944","MEAN_MOTION":14.8907054,"ECCENTRICITY":0.00492653,"INCLINATION":89.9045,"RA_OF_ASC_NODE":245.9973,"ARG_OF_PERICENTER":224.0293,"MEAN_ANOMALY":135.7008,"EPHEMERIS_TYPE":0,"CLASSIFICATION_TYPE":"U","NORAD_CAT_ID":20565,"ELEMENT_SET_NO":999,"REV_AT_EPOCH":36885,"BSTAR":0.00032450895,"MEAN_MOTION_DOT":3.143e-5,"MEAN_MOTION_DDOT":0}]
